[Satellite]
VERSION=1.1
NAME=TDRS 5
NICKNAME=TDRS 5
TLE1=1 21639U 91054B   17186.23695508  .00000076  00000-0  00000-0 0  9994
TLE2=2 21639  14.3871  21.2245 0024066 351.9494 187.8565  1.00270753 94936
